{
  "type": "FeatureCollection",
  "features": [
    {
      "type": "Feature",
      "properties": {
        "norad_id": 38867,
        "name": "INTELSAT 23 (IS-23)",
        "group": "intelsat",
        "lat": 0.02431778234437464,
        "lon": 124.78064620959836,
        "alt_km": 35788.17621587954,
        "timestamp": "2025-12-26T05:31:12.167690+00:00",
        "meta_object_name": "INTELSAT 23 (IS-23)",
        "meta_object_id": "2012-057A",
        "meta_epoch": "2025-12-25T21:22:27.693120",
        "meta_mean_motion": 1.0027337,
        "meta_eccentricity": 5.921e-05,
        "meta_inclination": 0.0157,
        "meta_ra_of_asc_node": 75.2996,
        "meta_arg_of_pericenter": 229.7942,
        "meta_mean_anomaly": 57.1721,
        "meta_ephemeris_type": 0,
        "meta_classification_type": "U",
        "meta_norad_cat_id": 38867,
        "meta_element_set_no": 999,
        "meta_rev_at_epoch": 4821,
        "meta_bstar": 0,
        "meta_mean_motion_dot": -2.63e-06,
        "meta_mean_motion_ddot": 0,
        "tle_line1": "1 38867U 12057A   25359.89059830 -.00000263  00000+0  00000+0 0  9993",
        "tle_line2": "2 38867   0.0157  75.2996 0000592 229.7942  57.1721  1.00273370 48217"
      },
      "geometry": {
        "type": "Point",
        "coordinates": [
          124.78064620959836,
          0.02431778234437464
        ]
      }
    },
    {
      "type": "Feature",
      "properties": {
        "norad_id": 39360,
        "name": "FM-6",
        "group": "intelsat",
        "lat": 0.0055083135415405545,
        "lon": 61.57189394040889,
        "alt_km": 35791.28096059076,
        "timestamp": "2025-12-26T05:31:12.167701+00:00",
        "meta_object_name": "FM-6",
        "meta_object_id": "2013-058A",
        "meta_epoch": "2025-12-25T07:36:38.659104",
        "meta_mean_motion": 1.00272197,
        "meta_eccentricity": 0.0002612,
        "meta_inclination": 0.0189,
        "meta_ra_of_asc_node": 76.11,
        "meta_arg_of_pericenter": 104.6769,
        "meta_mean_anomaly": 271.2768,
        "meta_ephemeris_type": 0,
        "meta_classification_type": "U",
        "meta_norad_cat_id": 39360,
        "meta_element_set_no": 999,
        "meta_rev_at_epoch": 4433,
        "meta_bstar": 0,
        "meta_mean_motion_dot": 4e-08,
        "meta_mean_motion_ddot": 0,
        "tle_line1": "1 39360U 13058A   25359.31711411  .00000004  00000+0  00000+0 0  9993",
        "tle_line2": "2 39360   0.0189  76.1100 0002612 104.6769 271.2768  1.00272197 44336"
      },
      "geometry": {
        "type": "Point",
        "coordinates": [
          61.57189394040889,
          0.0055083135415405545
        ]
      }
    },
    {
      "type": "Feature",
      "properties": {
        "norad_id": 40271,
        "name": "INTELSAT 30 (IS-30)",
        "group": "intelsat",
        "lat": 0.029417832723832187,
        "lon": 82.69998363516105,
        "alt_km": 35780.37979369002,
        "timestamp": "2025-12-26T05:31:12.167713+00:00",
        "meta_object_name": "INTELSAT 30 (IS-30)",
        "meta_object_id": "2014-062A",
        "meta_epoch": "2025-12-24T22:55:07.150368",
        "meta_mean_motion": 1.00269678,
        "meta_eccentricity": 0.00015108,
        "meta_inclination": 0.0145,
        "meta_ra_of_asc_node": 31.8875,
        "meta_arg_of_pericenter": 58.3804,
        "meta_mean_anomaly": 252.1734,
        "meta_ephemeris_type": 0,
        "meta_classification_type": "U",
        "meta_norad_cat_id": 40271,
        "meta_element_set_no": 999,
        "meta_rev_at_epoch": 504,
        "meta_bstar": 0,
        "meta_mean_motion_dot": -1.29e-06,
        "meta_mean_motion_ddot": 0,
        "tle_line1": "1 40271U 14062A   25358.95494387 -.00000129  00000+0  00000+0 0  9990",
        "tle_line2": "2 40271   0.0145  31.8875 0001510  58.3804 252.1734  1.00269678  5045"
      },
      "geometry": {
        "type": "Point",
        "coordinates": [
          82.69998363516105,
          0.029417832723832187
        ]
      }
    },
    {
      "type": "Feature",
      "properties": {
        "norad_id": 40333,
        "name": "DIRECTV 14",
        "group": "intelsat",
        "lat": 0.033945968341256995,
        "lon": 78.60923721760953,
        "alt_km": 35785.3663922541,
        "timestamp": "2025-12-26T05:31:12.167724+00:00",
        "meta_object_name": "DIRECTV 14",
        "meta_object_id": "2014-078B",
        "meta_epoch": "2025-12-24T12:37:43.773312",
        "meta_mean_motion": 1.00279829,
        "meta_eccentricity": 3.885e-05,
        "meta_inclination": 0.0184,
        "meta_ra_of_asc_node": 340.4706,
        "meta_arg_of_pericenter": 254.7884,
        "meta_mean_anomaly": 308.2619,
        "meta_ephemeris_type": 0,
        "meta_classification_type": "U",
        "meta_norad_cat_id": 40333,
        "meta_element_set_no": 999,
        "meta_rev_at_epoch": 4029,
        "meta_bstar": 0,
        "meta_mean_motion_dot": -1.06e-06,
        "meta_mean_motion_ddot": 0,
        "tle_line1": "1 40333U 14078B   25358.52620108 -.00000106  00000+0  00000+0 0  9996",
        "tle_line2": "2 40333   0.0184 340.4706 0000388 254.7884 308.2619  1.00279829 40291"
      },
      "geometry": {
        "type": "Point",
        "coordinates": [
          78.60923721760953,
          0.033945968341256995
        ]
      }
    },
    {
      "type": "Feature",
      "properties": {
        "norad_id": 40663,
        "name": "DIRECTV 15",
        "group": "intelsat",
        "lat": 0.030318416511312604,
        "lon": 74.86289930039398,
        "alt_km": 35787.38604414986,
        "timestamp": "2025-12-26T05:31:12.167736+00:00",
        "meta_object_name": "DIRECTV 15",
        "meta_object_id": "2015-026A",
        "meta_epoch": "2025-12-25T16:00:02.811744",
        "meta_mean_motion": 1.00267803,
        "meta_eccentricity": 3.367e-05,
        "meta_inclination": 0.018,
        "meta_ra_of_asc_node": 26.1792,
        "meta_arg_of_pericenter": 146.2748,
        "meta_mean_anomaly": 59.0835,
        "meta_ephemeris_type": 0,
        "meta_classification_type": "U",
        "meta_norad_cat_id": 40663,
        "meta_element_set_no": 999,
        "meta_rev_at_epoch": 3872,
        "meta_bstar": 0,
        "meta_mean_motion_dot": -8e-07,
        "meta_mean_motion_ddot": 0,
        "tle_line1": "1 40663U 15026A   25359.66669921 -.00000080  00000+0  00000+0 0  9999",
        "tle_line2": "2 40663   0.0180  26.1792 0000336 146.2748  59.0835  1.00267803 38728"
      },
      "geometry": {
        "type": "Point",
        "coordinates": [
          74.86289930039398,
          0.030318416511312604
        ]
      }
    },
    {
      "type": "Feature",
      "properties": {
        "norad_id": 40664,
        "name": "SKY MEXICO-1",
        "group": "intelsat",
        "lat": 0.035192312354198445,
        "lon": 99.00124949457899,
        "alt_km": 35797.25719202278,
        "timestamp": "2025-12-26T05:31:12.167747+00:00",
        "meta_object_name": "SKY MEXICO-1",
        "meta_object_id": "2015-026B",
        "meta_epoch": "2025-12-25T05:41:31.709184",
        "meta_mean_motion": 1.00269983,
        "meta_eccentricity": 0.0002553,
        "meta_inclination": 0.0152,
        "meta_ra_of_asc_node": 8.8058,
        "meta_arg_of_pericenter": 281.657,
        "meta_mean_anomaly": 170.1492,
        "meta_ephemeris_type": 0,
        "meta_classification_type": "U",
        "meta_norad_cat_id": 40664,
        "meta_element_set_no": 999,
        "meta_rev_at_epoch": 3871,
        "meta_bstar": 0,
        "meta_mean_motion_dot": -2.13e-06,
        "meta_mean_motion_ddot": 0,
        "tle_line1": "1 40664U 15026B   25359.23717256 -.00000213  00000+0  00000+0 0  9996",
        "tle_line2": "2 40664   0.0152   8.8058 0002553 281.6570 170.1492  1.00269983 38714"
      },
      "geometry": {
        "type": "Point",
        "coordinates": [
          99.00124949457899,
          0.035192312354198445
        ]
      }
    },
    {
      "type": "Feature",
      "properties": {
        "norad_id": 40874,
        "name": "INTELSAT 34 (IS-34)",
        "group": "intelsat",
        "lat": 0.02338061845753656,
        "lon": 122.26070677727968,
        "alt_km": 35785.15361766624,
        "timestamp": "2025-12-26T05:31:12.167758+00:00",
        "meta_object_name": "INTELSAT 34 (IS-34)",
        "meta_object_id": "2015-039A",
        "meta_epoch": "2025-12-25T21:21:42.765120",
        "meta_mean_motion": 1.00269339,
        "meta_eccentricity": 5.354e-05,
        "meta_inclination": 0.0132,
        "meta_ra_of_asc_node": 342.0375,
        "meta_arg_of_pericenter": 183.1009,
        "meta_mean_anomaly": 194.429,
        "meta_ephemeris_type": 0,
        "meta_classification_type": "U",
        "meta_norad_cat_id": 40874,
        "meta_element_set_no": 999,
        "meta_rev_at_epoch": 3788,
        "meta_bstar": 0,
        "meta_mean_motion_dot": -2.64e-06,
        "meta_mean_motion_ddot": 0,
        "tle_line1": "1 40874U 15039A   25359.89007830 -.00000264  00000+0  00000+0 0  9991",
        "tle_line2": "2 40874   0.0132 342.0375 0000535 183.1009 194.4290  1.00269339 37888"
      },
      "geometry": {
        "type": "Point",
        "coordinates": [
          122.26070677727968,
          0.02338061845753656
        ]
      }
    }
  ]
}